INTELSAT 901 (IS-901)   
1 26824U 01024A   18151.85886892 -.00000216  00000-0  00000-0 0  9999
2 26824   0.2087  93.9241 0002199 327.7322 107.3306  1.00272378 62228
ASTRA 2C                
1 26853U 01025A   18151.89565778  .00000134  00000-0  00000-0 0  9991
2 26853   1.1487  90.3807 0003111 340.8335 164.2183  1.00272660 15595
INTELSAT 902 (IS-902)   
1 26900U 01039A   18151.94060084  .00000030  00000-0  00000-0 0  9990
2 26900   0.0190  78.6825 0003034 354.4793 216.8346  1.00271108 61254
EUTELSAT 12 WEST B      
1 26927U 01042A   18151.88850443 -.00000103  00000-0  00000-0 0  9994
2 26927   0.0657 347.5642 0006699  82.4885 126.6288  1.00272832 61052
DIRECTV 4S              
1 26985U 01052A   18151.58361508 -.00000117  00000-0  00000+0 0  9999
2 26985   0.0144 302.4662 0003167 117.3987 298.0748  1.00272448 60537
ECHOSTAR 7              
1 27378U 02006A   18152.23030309 -.00000003  00000-0  00000+0 0  9995
2 27378   0.0208  40.8780 0001857  16.4473 156.4361  1.00271645 59604
INTELSAT 904 (IS-904)   
1 27380U 02007A   18152.47426872  .00000134  00000-0  00000+0 0  9993
2 27380   0.0100 323.4384 0003005 110.9743  31.3312  1.00271957 59631
TDRS 9                  
1 27389U 02011A   18151.27594662 -.00000106  00000-0  00000+0 0  9997
2 27389   5.9619  75.0243 0019842 265.7510 355.2257  1.00272409 60978
JCSAT 2A                
1 27399U 02015A   18151.90952829 -.00000257  00000-0  00000-0 0  9993
2 27399   1.2278  90.5294 0005301 188.1878  31.0659  1.00269814 59437
ASTRA 3A                
1 27400U 02015B   18151.62431497 -.00000286  00000-0  00000-0 0  9990
2 27400   4.4781  67.1526 0003322   6.8404 352.8517  1.00273757 59263
INTELSAT 903 (IS-903)   
1 27403U 02016A   18151.88466605 -.00000227  00000-0  00000-0 0  9996
2 27403   0.5937  94.2859 0003201 350.4139  91.6080  1.00272405 16215
NSS-7                   
1 27414U 02019A   18151.58786963 -.00000160  00000-0  00000-0 0  9996
2 27414   2.6226  81.1973 0002576 340.5159  18.9565  1.00271897 59108
DIRECTV 5 (TEMPO 1)     
1 27426U 02023A   18151.61416663 -.00000059  00000-0  00000-0 0  9992
2 27426   0.0241 315.1764 0003603 114.2874 290.5748  1.00268921 58878
INTELSAT 905 (IS-905)   
1 27438U 02027A   18151.38349604 -.00000189  00000-0  00000+0 0  9996
2 27438   0.0122 305.4696 0002642 114.1690 302.7480  1.00267118 58496
EXPRESS-A4              
1 27441U 02029A   18152.32464569 -.00000250  00000-0  00000+0 0  9994
2 27441   6.6395  54.3805 0008083  67.2546  30.5079  1.00273278 58516
GALAXY 3C (G-3C)        
1 27445U 02030A   18151.57230290 -.00000154  00000-0  00000+0 0  9991
2 27445   0.0194 311.6597 0001756  26.1148  22.2201  1.00271766 58496
EUTELSAT 5 WEST A       
1 27460U 02035A   18152.32028498 -.00000045  00000-0  00000+0 0  9991
2 27460   0.0438 347.6883 0006202  83.4122 288.9697  1.00271763 58295
N-STAR C                
1 27461U 02035B   18152.49241375 -.00000315  00000-0  00000+0 0  9991
2 27461   5.2737  62.9045 0004911   1.1332 139.1089  1.00270800 58201
EUTELSAT 36 WEST A      
1 27508U 02040A   18152.14219298  .00000052  00000-0  00000+0 0  9997
2 27508   0.0649  12.0937 0001939  87.1363 260.7942  1.00271731 57795
METEOSAT-8 (MSG-1)      
1 27509U 02040B   18151.35172439  .00000135  00000-0  00000-0 0  9998
2 27509   5.4396  57.0409 0001273  22.8213 336.9380  1.00267060 57790
INTELSAT 906 (IS-906)   
1 27513U 02041A   18151.92618899  .00000011  00000-0  00000-0 0  9995
2 27513   0.0149 287.4277 0002826 154.5454 204.9614  1.00270920 57578
HISPASAT 1D             
1 27528U 02044A   18152.36342803 -.00000219  00000-0  00000+0 0  9992
2 27528   0.0285 327.6176 0003995  85.3214 297.6813  1.00273026 57494
TDRS 10                 
1 27566U 02055A   18150.95171472  .00000072  00000-0  00000-0 0  9998
2 27566   5.6298  56.9041 0008326 267.8286  91.8363  1.00268990 56760
NSS-6                   
1 27603U 02057A   18151.90987722 -.00000273  00000-0  00000-0 0  9995
2 27603   0.0394  94.5298 0001087 337.2341 240.1318  1.00271448 56638
NIMIQ 2                 
1 27632U 02062A   18151.49097560 -.00000046  00000-0  00000-0 0  9997
2 27632   2.7260  80.4509 0001931 245.6829 113.7920  0.99460166 14745
INTELSAT 907 (IS-907)   
1 27683U 03007A   18152.38255698 -.00000205  00000-0  00000+0 0  9996
2 27683   0.0133 303.4180 0002977 129.6996 286.9151  1.00269596 55933
GALAXY 12 (G-12)        
1 27715U 03013B   18151.72618763  .00000056  00000-0  00000-0 0  9996
2 27715   0.0135 309.3094 0002186 145.2052 287.0768  1.00271494 22670
ASIASAT 4               
1 27718U 03014A   18150.02337631  .00000148  00000-0  00000-0 0  9996
2 27718   0.0400 113.0935 0000496 296.2258 244.7935  1.00273925 55436
HELLAS-SAT 2            
1 27811U 03020A   18151.89174711  .00000149  00000-0  00000+0 0  9991
2 27811   0.2133 110.5767 0003767  36.6825 102.1104  1.00276388 54878
THURAYA-2               
1 27825U 03026A   18152.26924410  .00000126  00000-0  00000+0 0  9998
2 27825   5.2100  30.4703 0004757  37.2622 322.8733  1.00271967 54893
OPTUS C1                
1 27831U 03028B   18152.12966019 -.00000150  00000-0  00000+0 0  9991
2 27831   0.0517 163.0399 0003438 283.7221   5.4926  1.00272200 54863
ECHOSTAR 12 (RAINBOW 1) 
1 27852U 03033A   18151.87376160 -.00000202  00000-0  00000-0 0  9992
2 27852   0.0101 316.4329 0002180  86.7305  74.2929  1.00273771 54501
GALAXY 23 (G-23)        
1 27854U 03034A   18151.81021509  .00000010  00000-0  00000-0 0  9999
2 27854   0.0110  72.7587 0003246  12.4178 334.7621  1.00271271 54279
GALAXY 13 (HORIZONS-1)  
1 27954U 03044A   18151.65026330  .00000045  00000-0  00000+0 0  9997
2 27954   0.0095 105.1833 0000385 312.1722 298.8257  1.00271235 53693
YAMAL 202               
1 28089U 03053A   18152.21507800  .00000117  00000-0  00000+0 0  9996
2 28089   0.0575 113.1173 0004161 302.0565 320.8975  1.00270956 53222
EXPRESS-AM22 (SESAT 2)  
1 28134U 03060A   18151.90691122 -.00000141  00000-0  00000-0 0  9990
2 28134   1.1981  90.0921 0000622 264.4956 301.3455  1.00272083 52817
AMC-10 (GE-10)          
1 28154U 04003A   18151.72031369  .00000085  00000-0  00000+0 0  9996
2 28154   0.0122 314.8817 0003104 127.1201 291.4683  1.00271504 52472
ABS-4 (MOBISAT-1)       
1 28184U 04007A   18151.97486795  .00000038  00000-0  00000+0 0  9995
2 28184   0.0214 310.5173 0001916 121.3801 229.4976  1.00272598 52117
EUTELSAT 7A             
1 28187U 04008A   18151.89234281  .00000045  00000-0  00000-0 0  9990
2 28187   0.0769  34.3741 0004539  57.6225 125.5643  1.00273286 51900
DIRECTV 7S              
1 28238U 04016A   18152.49442271 -.00000001  00000-0  00000+0 0  9995
2 28238   0.0436  82.8452 0003311 351.9360 234.0696  1.00271597 51606
AMC-11 (GE-11)          
1 28252U 04017A   18151.51747736  .00000065  00000-0  00000-0 0  9998
2 28252   0.0516  79.5941 0002994 356.8875 227.7754  1.00273821 51468
INTELSAT 10-02          
1 28358U 04022A   18151.67538722 -.00000014  00000-0  00000+0 0  9995
2 28358   0.0055   6.1067 0000529  23.2310 101.9330  1.00271359 51163
APSTAR 5 (TELSTAR 18)   
1 28364U 04024A   18152.13938198 -.00000297  00000-0  00000+0 0  9990
2 28364   0.0394  88.2226 0003200 338.6280  10.8991  1.00271887 51091
ANIK F2                 
1 28378U 04027A   18152.50804760 -.00000052  00000-0  00000+0 0  9995
2 28378   0.0113  18.8537 0000550  70.0437 232.8569  1.00271279 50894
AMC-15                  
1 28446U 04041A   18151.87001045 -.00000091  00000-0  00000-0 0  9995
2 28446   0.0557  80.4563 0002894 347.3812  29.6231  1.00270534 49929
AMC-16                  
1 28472U 04048A   18152.36507808 -.00000209  00000-0  00000+0 0  9994
2 28472   0.0130 349.1119 0002795  86.8172 220.2952  1.00272278 49354
NSS-10 (AMC-12)         
1 28526U 05003A   18151.88344476 -.00000253  00000-0  00000-0 0  9992
2 28526   0.0177 315.3661 0003126 127.8881  86.6598  1.00271994 23710
XTAR-EUR                
1 28542U 05005A   18152.22602570  .00000149  00000-0  00000+0 0  9995
2 28542   0.0214  58.8126 0003208   8.8103 292.4137  1.00274417 48728
XM-3 (RHYTHM)           
1 28626U 05008A   18152.14424299 -.00000208  00000-0  00000+0 0  9999
2 28626   0.0105  81.3890 0000308 353.6001 141.4141  1.00270360 48603
INMARSAT 4-F1           
1 28628U 05009A   18151.70952021 -.00000265  00000-0  00000+0 0  9995
2 28628   2.9241  16.8265 0003774  53.7783 217.4698  1.00271288 48208
APSTAR 6                
1 28638U 05012A   18151.91764123 -.00000322  00000-0  00000-0 0  9992
2 28638   0.0498 102.8107 0002100 323.3337 287.5057  1.00267924 72943
SPACEWAY 1              
1 28644U 05015A   18152.52233615 -.00000106  00000-0  00000+0 0  9996
2 28644   0.0438 153.8899 0000639 280.3156 260.8763  1.00277983 48053
DIRECTV 8               
1 28659U 05019A   18150.59124565 -.00000120  00000-0  00000-0 0  9991
2 28659   0.0154 334.0424 0003292  95.6362 290.3587  1.00273266 47719
GALAXY 28 (G-28)        
1 28702U 05022A   18151.87323817 -.00000188  00000-0  00000-0 0  9991
2 28702   0.0245 315.4063 0000213 112.7161  46.5466  1.00269424 22664
EXPRESS-AM3             
1 28707U 05023A   18151.75327179 -.00000325  00000-0  00000-0 0  9992
2 28707   0.1463  92.8150 0001770 289.6339 240.9162  1.00269908 47370
THAICOM 4               
1 28786U 05028A   18151.91476244 -.00000366  00000-0  00000-0 0  9995
2 28786   0.0135 333.5365 0002468  99.8090 264.8423  1.00271950 22812
GALAXY 14 (G-14)        
1 28790U 05030A   18151.81021509  .00000034  00000-0  00000-0 0  9993
2 28790   0.0222  50.1462 0002676  19.5409 346.2291  1.00272068 46846
ANIK F1R                
1 28868U 05036A   18151.65418890 -.00000078  00000-0  00000+0 0  9998
2 28868   0.0406  68.8388 0003368 343.1214 325.3370  1.00271609 46697
GALAXY 15 (G-15)        
1 28884U 05041A   18151.72618763  .00000076  00000-0  00000-0 0  9999
2 28884   0.0078 357.0796 0001854  69.8563 310.6530  1.00270637 46283
